{
  "type": "FeatureCollection",
  "features": [
    {
      "type": "Feature",
      "properties": {
        "norad_id": 29975,
        "name": "FENGYUN 1C DEB",
        "group": "fengyun-1c-debris",
        "lat": 31.149475042512332,
        "lon": -136.35051205060384,
        "alt_km": 976.8833746730807,
        "timestamp": "2025-12-22T16:55:17.735984+00:00",
        "meta_object_name": "FENGYUN 1C DEB",
        "meta_object_id": "1999-025KZ",
        "meta_epoch": "2025-12-22T02:45:22.326336",
        "meta_mean_motion": 13.98027887,
        "meta_eccentricity": 0.01131272,
        "meta_inclination": 99.3378,
        "meta_ra_of_asc_node": 37.3418,
        "meta_arg_of_pericenter": 348.2725,
        "meta_mean_anomaly": 70.6725,
        "meta_ephemeris_type": 0,
        "meta_classification_type": "U",
        "meta_norad_cat_id": 29975,
        "meta_element_set_no": 999,
        "meta_rev_at_epoch": 96568,
        "meta_bstar": 0.00012460908,
        "meta_mean_motion_dot": 1.4e-06,
        "meta_mean_motion_ddot": 0,
        "tle_line1": "1 29975U 99025KZ  25356.11484174  .00000140  00000+0  12461-3 0  9999",
        "tle_line2": "2 29975  99.3378  37.3418 0113127 348.2725  70.6725 13.98027887965689"
      },
      "geometry": {
        "type": "Point",
        "coordinates": [
          -136.35051205060384,
          31.149475042512332
        ]
      }
    },
    {
      "type": "Feature",
      "properties": {
        "norad_id": 29976,
        "name": "FENGYUN 1C DEB",
        "group": "fengyun-1c-debris",
        "lat": -29.763619519277583,
        "lon": -1.1016220030396287,
        "alt_km": 993.6570795527787,
        "timestamp": "2025-12-22T16:55:17.735994+00:00",
        "meta_object_name": "FENGYUN 1C DEB",
        "meta_object_id": "1999-025LA",
        "meta_epoch": "2025-12-22T05:20:43.154880",
        "meta_mean_motion": 13.98122051,
        "meta_eccentricity": 0.02674728,
        "meta_inclination": 98.9192,
        "meta_ra_of_asc_node": 353.2767,
        "meta_arg_of_pericenter": 213.2053,
        "meta_mean_anomaly": 207.5801,
        "meta_ephemeris_type": 0,
        "meta_classification_type": "U",
        "meta_norad_cat_id": 29976,
        "meta_element_set_no": 999,
        "meta_rev_at_epoch": 96469,
        "meta_bstar": 0.00045611994,
        "meta_mean_motion_dot": 8.36e-06,
        "meta_mean_motion_ddot": 0,
        "tle_line1": "1 29976U 99025LA  25356.22272170  .00000836  00000+0  45612-3 0  9999",
        "tle_line2": "2 29976  98.9192 353.2767 0267472 213.2053 207.5801 13.98122051964699"
      },
      "geometry": {
        "type": "Point",
        "coordinates": [
          -1.1016220030396287,
          -29.763619519277583
        ]
      }
    },
    {
      "type": "Feature",
      "properties": {
        "norad_id": 29977,
        "name": "FENGYUN 1C DEB",
        "group": "fengyun-1c-debris",
        "lat": 32.08221008569613,
        "lon": 43.331346259617625,
        "alt_km": 858.8024920644293,
        "timestamp": "2025-12-22T16:55:17.736005+00:00",
        "meta_object_name": "FENGYUN 1C DEB",
        "meta_object_id": "1999-025LB",
        "meta_epoch": "2025-12-15T02:05:24.079200",
        "meta_mean_motion": 14.0509794,
        "meta_eccentricity": 0.0128352,
        "meta_inclination": 98.3968,
        "meta_ra_of_asc_node": 210.9629,
        "meta_arg_of_pericenter": 250.2626,
        "meta_mean_anomaly": 265.3537,
        "meta_ephemeris_type": 0,
        "meta_classification_type": "U",
        "meta_norad_cat_id": 29977,
        "meta_element_set_no": 999,
        "meta_rev_at_epoch": 96393,
        "meta_bstar": 0.001211704,
        "meta_mean_motion_dot": 2.064e-05,
        "meta_mean_motion_ddot": 0,
        "tle_line1": "1 29977U 99025LB  25349.08708425  .00002064  00000+0  12117-2 0  9991",
        "tle_line2": "2 29977  98.3968 210.9629 0128352 250.2626 265.3537 14.05097940963932"
      },
      "geometry": {
        "type": "Point",
        "coordinates": [
          43.331346259617625,
          32.08221008569613
        ]
      }
    },
    {
      "type": "Feature",
      "properties": {
        "norad_id": 29978,
        "name": "FENGYUN 1C DEB",
        "group": "fengyun-1c-debris",
        "lat": -78.39182179369901,
        "lon": 176.02594109254025,
        "alt_km": 944.9038613413186,
        "timestamp": "2025-12-22T16:55:17.736015+00:00",
        "meta_object_name": "FENGYUN 1C DEB",
        "meta_object_id": "1999-025LC",
        "meta_epoch": "2025-12-22T02:02:37.323744",
        "meta_mean_motion": 13.9591084,
        "meta_eccentricity": 0.00764602,
        "meta_inclination": 99.0599,
        "meta_ra_of_asc_node": 46.3786,
        "meta_arg_of_pericenter": 26.8697,
        "meta_mean_anomaly": 3.0406,
        "meta_ephemeris_type": 0,
        "meta_classification_type": "U",
        "meta_norad_cat_id": 29978,
        "meta_element_set_no": 999,
        "meta_rev_at_epoch": 96447,
        "meta_bstar": 0.00024382265,
        "meta_mean_motion_dot": 2.98e-06,
        "meta_mean_motion_ddot": 0,
        "tle_line1": "1 29978U 99025LC  25356.08515421  .00000298  00000+0  24382-3 0  9997",
        "tle_line2": "2 29978  99.0599  46.3786 0076460  26.8697   3.0406 13.95910840964476"
      },
      "geometry": {
        "type": "Point",
        "coordinates": [
          176.02594109254025,
          -78.39182179369901
        ]
      }
    },
    {
      "type": "Feature",
      "properties": {
        "norad_id": 29979,
        "name": "FENGYUN 1C DEB",
        "group": "fengyun-1c-debris",
        "lat": -79.54376537628109,
        "lon": 72.38292052387374,
        "alt_km": 873.7402022074084,
        "timestamp": "2025-12-22T16:55:17.736025+00:00",
        "meta_object_name": "FENGYUN 1C DEB",
        "meta_object_id": "1999-025LD",
        "meta_epoch": "2025-12-21T20:15:20.692800",
        "meta_mean_motion": 14.2598136,
        "meta_eccentricity": 0.01079801,
        "meta_inclination": 98.3695,
        "meta_ra_of_asc_node": 18.6478,
        "meta_arg_of_pericenter": 136.3498,
        "meta_mean_anomaly": 41.3501,
        "meta_ephemeris_type": 0,
        "meta_classification_type": "U",
        "meta_norad_cat_id": 29979,
        "meta_element_set_no": 999,
        "meta_rev_at_epoch": 98203,
        "meta_bstar": 0.00032045082,
        "meta_mean_motion_dot": 7.72e-06,
        "meta_mean_motion_ddot": 0,
        "tle_line1": "1 29979U 99025LD  25355.84398950  .00000772  00000+0  32045-3 0  9999",
        "tle_line2": "2 29979  98.3695  18.6478 0107980 136.3498  41.3501 14.25981360982036"
      },
      "geometry": {
        "type": "Point",
        "coordinates": [
          72.38292052387374,
          -79.54376537628109
        ]
      }
    },
    {
      "type": "Feature",
      "properties": {
        "norad_id": 29980,
        "name": "FENGYUN 1C DEB",
        "group": "fengyun-1c-debris",
        "lat": -40.50606757685531,
        "lon": -22.06982373506311,
        "alt_km": 815.3249010393793,
        "timestamp": "2025-12-22T16:55:17.736035+00:00",
        "meta_object_name": "FENGYUN 1C DEB",
        "meta_object_id": "1999-025LE",
        "meta_epoch": "2025-12-22T01:07:17.186016",
        "meta_mean_motion": 14.06322677,
        "meta_eccentricity": 0.00871043,
        "meta_inclination": 98.5518,
        "meta_ra_of_asc_node": 164.6934,
        "meta_arg_of_pericenter": 221.2376,
        "meta_mean_anomaly": 268.5453,
        "meta_ephemeris_type": 0,
        "meta_classification_type": "U",
        "meta_norad_cat_id": 29980,
        "meta_element_set_no": 999,
        "meta_rev_at_epoch": 97123,
        "meta_bstar": 0.00010023037,
        "meta_mean_motion_dot": 1.3e-06,
        "meta_mean_motion_ddot": 0,
        "tle_line1": "1 29980U 99025LE  25356.04672669  .00000130  00000+0  10023-3 0  9996",
        "tle_line2": "2 29980  98.5518 164.6934 0087104 221.2376 268.5453 14.06322677971235"
      },
      "geometry": {
        "type": "Point",
        "coordinates": [
          -22.06982373506311,
          -40.50606757685531
        ]
      }
    },
    {
      "type": "Feature",
      "properties": {
        "norad_id": 29982,
        "name": "FENGYUN 1C DEB",
        "group": "fengyun-1c-debris",
        "lat": -77.23648032379059,
        "lon": -133.5649132668486,
        "alt_km": 597.7949844615541,
        "timestamp": "2025-12-22T16:55:17.736045+00:00",
        "meta_object_name": "FENGYUN 1C DEB",
        "meta_object_id": "1999-025LG",
        "meta_epoch": "2025-12-22T03:06:08.676576",
        "meta_mean_motion": 14.66953151,
        "meta_eccentricity": 0.01216644,
        "meta_inclination": 99.4011,
        "meta_ra_of_asc_node": 178.7722,
        "meta_arg_of_pericenter": 259.5891,
        "meta_mean_anomaly": 219.5366,
        "meta_ephemeris_type": 0,
        "meta_classification_type": "U",
        "meta_norad_cat_id": 29982,
        "meta_element_set_no": 999,
        "meta_rev_at_epoch": 421,
        "meta_bstar": 0.00075931553,
        "meta_mean_motion_dot": 4.68e-05,
        "meta_mean_motion_ddot": 0,
        "tle_line1": "1 29982U 99025LG  25356.12926709  .00004680  00000+0  75932-3 0  9998",
        "tle_line2": "2 29982  99.4011 178.7722 0121664 259.5891 219.5366 14.66953151  4219"
      },
      "geometry": {
        "type": "Point",
        "coordinates": [
          -133.5649132668486,
          -77.23648032379059
        ]
      }
    }
  ]
}